"Cressida" "Sol/Uranus"
{
	Texture	 	"asteroid.jpg"
	Mesh		"asteroid.cms"
	Radius		39.8

	EllipticalOrbit
	{
	Period		0.4635700
	SemiMajorAxis	61777
	Eccentricity	0.0004
	Inclination	0.006
	AscendingNode	292.262	#
	ArgOfPericenter	4.425	# J2000.0
	MeanAnomaly     3.135	#
	}

	Albedo 0.07
}

"Desdemona" "Sol/Uranus"
{
	Texture	 	"asteroid.jpg"
	Mesh		"asteroid.cms"
	Radius		32.0

	EllipticalOrbit
	{
	Period		0.4736510
	SemiMajorAxis	62659
	Eccentricity	0.0001
	Inclination	0.113
	AscendingNode	313.615	#
	ArgOfPericenter	321.145	# J2000.0
	MeanAnomaly     357.199	#
	}

	Albedo 0.07
}

"Juliet" "Sol/Uranus"
{
	Texture	 	"asteroid.jpg"
	Mesh		"asteroid.cms"
	Radius		46.8

	EllipticalOrbit
	{
	Period		0.4930660
	SemiMajorAxis	64358
	Eccentricity	0.0007
	Inclination	0.065
	AscendingNode	152.582	#
	ArgOfPericenter	212.168 # J2000.0
	MeanAnomaly     51.564	#
	}

	Albedo 0.07
}

"Portia" "Sol/Uranus"
{
	Texture	 	"asteroid.jpg"
	Mesh		"asteroid.cms"
	Radius		67.6

	EllipticalOrbit
	{
	Period		0.5131958
	SemiMajorAxis	66097
	Eccentricity	0.0001
	Inclination	0.059
	AscendingNode	128.717	#
	ArgOfPericenter	204.520	# J2000.0
	MeanAnomaly     356.184	#
	}

	Albedo 0.07
}

"Rosalind" "Sol/Uranus"
{
	Texture	 	"asteroid.jpg"
	Mesh		"asteroid.cms"
	Radius		36

	EllipticalOrbit
	{
	Period		0.5584589
	SemiMajorAxis	69927
	Eccentricity	0.0001
	Inclination	0.279
	AscendingNode	26.572	#
	ArgOfPericenter	0.858	# J2000.0
	MeanAnomaly     9.041	#
	}

	Albedo 0.07
}

"Belinda" "Sol/Uranus"
{
	Texture	 	"asteroid.jpg"
	Mesh		"asteroid.cms"
	Radius		40.3

	EllipticalOrbit
	{
	Period		0.6235248
	SemiMajorAxis	75255
	Eccentricity	0.0001
	Inclination	0.031
	AscendingNode	97.820	#
	ArgOfPericenter	299.908	# J2000.0
	MeanAnomaly     6.896	#
	}

	Albedo 0.07
}

"Puck" "Sol/Uranus"
{
	Texture	 	"asteroid.jpg"
	Mesh		"asteroid.cms"
	Radius		81

	EllipticalOrbit
	{
	Period		0.7618321
	SemiMajorAxis	86004
	Eccentricity	0.0001
	Inclination	0.319
	AscendingNode	34.713	#
	ArgOfPericenter	213.582	# J2000.0
	MeanAnomaly     12.990	#
	}

	Albedo 0.07
}

"Caliban" "Sol/Uranus"
{
	Texture	 	"asteroid.jpg"
	Mesh		"asteroid.cms"
	Radius		49

	EllipticalOrbit
	{
	Period		579.73
	SemiMajorAxis	7231000
	Eccentricity	0.1587
	Inclination	137.509	#
	AscendingNode	187.152	#
	ArgOfPericenter	148.345	# J2000.0
	MeanAnomaly     26.273	#
	}

	RotationPeriod  10   # Guess

	Albedo 0.07
}

"Stephano" "Sol/Uranus"
{
	Texture	 	"asteroid.jpg"
	Mesh		"asteroid.cms"
	Radius		10

	EllipticalOrbit
	{
	Period		677.36
	SemiMajorAxis	8004000
	Eccentricity	0.2292
	Inclination	132.517	#
	AscendingNode	198.306	#
	ArgOfPericenter	178.810	# J2000.0
	MeanAnomaly     255.381	#
	}

	RotationPeriod  10   # Guess

	Albedo 0.07
}

"Sycorax" "Sol/Uranus"
{
	Texture	 	"asteroid.jpg"
	Mesh		"asteroid.cms"
	Radius		95

	EllipticalOrbit
	{
	Period		1288.30
	SemiMajorAxis	12179000
	Eccentricity	0.5224
	Inclination	97.810	#
	AscendingNode	207.683	#
	ArgOfPericenter	105.483	# J2000.0
	MeanAnomaly     261.598	#
	}

	RotationPeriod  10   # Guess

	Albedo 0.07
}

"Prospero" "Sol/Uranus"
{
	Texture	 	"asteroid.jpg"
	Mesh		"asteroid.cms"
	Radius		15

	EllipticalOrbit
	{
	Period		1978.29
	SemiMajorAxis	16256000
	Eccentricity	0.4448
	Inclination	67.932	#
	AscendingNode	196.124	#
	ArgOfPericenter	201.033	# J2000.0
	MeanAnomaly     247.473	#
	}

	RotationPeriod  10   # Guess

	Albedo 0.07
}

"Setebos" "Sol/Uranus"
{
	Texture	 	"asteroid.jpg"
	Mesh		"asteroid.cms"
	Radius		15

	EllipticalOrbit
	{
	Period		2225.21
	SemiMajorAxis	17418000
	Eccentricity	0.5914
	Inclination	100.772	#
	AscendingNode	213.869	#
	ArgOfPericenter	95.958	# J2000.0
	MeanAnomaly     173.109	#
	}

	RotationPeriod  10   # Guess

	Albedo 0.07
}


# Minor satellites of Neptune

"Naiad" "Sol/Neptune"
{
	Texture	 	"asteroid.jpg"
	Mesh		"asteroid.cms"
	Radius		29

	EllipticalOrbit
	{
	Period		0.294396
	SemiMajorAxis	48227
	Eccentricity	0.0003
	Inclination	5.135	#
	AscendingNode	7.545	#
	ArgOfPericenter	36.057	# J2000.0
	MeanAnomaly     5.947	#
	}

	Albedo 0.060
}

"Thalassa" "Sol/Neptune"
{
	Texture	 	"asteroid.jpg"
	Mesh		"asteroid.cms"
	Radius		40

	EllipticalOrbit
	{
	Period		0.311485
	SemiMajorAxis	50075
	Eccentricity	0.0002
	Inclination	0.370	#
	AscendingNode	346.174	#
	ArgOfPericenter	278.052	# J2000.0
	MeanAnomaly     353.320	#
	}

	Albedo 0.060
}

"Despina" "Sol/Neptune"
{
	Texture	 	"asteroid.jpg"
	Mesh		"asteroid.cms"
	Radius		74

	EllipticalOrbit
	{
	Period		0.334655
	SemiMajorAxis	52526
	Eccentricity	0.0001
	Inclination	0.589	#
	AscendingNode	329.733	#
	ArgOfPericenter	135.342	# J2000.0
	MeanAnomaly     356.923	#
	}

	Albedo 0.059
}

"Galatea" "Sol/Neptune"
{
	Texture	 	"asteroid.jpg"
	Mesh		"asteroid.cms"
	Radius		79

	EllipticalOrbit
	{
	Period		0.428745
	SemiMajorAxis	61953
	Eccentricity	0.0001
	Inclination	0.559	#
	AscendingNode	323.127	#
	ArgOfPericenter	87.291	# J2000.0
	MeanAnomaly     3.172	#
	}

	Albedo 0.063
}

"Larissa" "Sol/Neptune"
{
	Texture	 	"asteroid.jpg"
	Mesh		"asteroid.cms"
	Radius		96

	EllipticalOrbit
	{
	Period		0.554654
	SemiMajorAxis	73548
	Eccentricity	0.0014
	Inclination	0.748	#
	AscendingNode	321.000	#
	ArgOfPericenter	227.893	# J2000.0
	MeanAnomaly     146.131	#
	}

	Albedo 0.056
}

